     2.11           N: GPS NAV DATA                         RINEX VERSION / TYPE
teqc  2018Dec12     gpsops              20220405 01:04:05UTCPGM / RUN BY / DATE
Linux 2.6.32-573.12.1.x86_64|x86_64|gcc -static|Linux 64|=+ COMMENT
CHPI                                    MARKER NAME         COMMENT
41609M003                               MARKER NUMBER       COMMENT
4164613.9484 -4162456.9866 -2445028.7316                    COMMENT
                                                            COMMENT
This data is provided as a public service by NASA/JPL.      COMMENT
No warranty is expressed or implied regarding suitability   COMMENT
for use.  For further information, contact:                 COMMENT
Dave Stowers, NASA/JPL m/s 238-600                          COMMENT
4800 Oak Grove Drive, Pasadena CA 91109 USA                 COMMENT
                                                            END OF HEADER
13 22  4  4  6  0  0.0 2.881507389247D-04 6.480149750132D-12 0.000000000000D+00
    3.700000000000D+01-3.778125000000D+01 4.727339769819D-09 1.289058798747D+00
   -1.892447471619D-06 5.830563488416D-03 6.934627890587D-06 5.153669797897D+03
    1.080000000000D+05-1.061707735062D-07-5.699741706035D-01 9.499490261078D-08
    9.687763153878D-01 2.521562500000D+02 9.359176129310D-01-8.160339910912D-09
   -4.857345185067D-10 1.000000000000D+00 2.204000000000D+03 0.000000000000D+00
    2.000000000000D+00 0.000000000000D+00-1.117587089539D-08 3.700000000000D+01
    1.008180000000D+05 4.000000000000D+00
18 22  4  4  6  0  0.0 2.040085382760D-04-9.208633855451D-12 0.000000000000D+00
    1.060000000000D+02-5.237500000000D+01 4.032310819074D-09-1.687530966267D-01
   -2.695247530937D-06 2.174753695726D-03 1.100823283195D-05 5.153614845276D+03
    1.080000000000D+05 2.421438694000D-08-2.779353634366D+00 3.725290298462D-09
    9.714128156086D-01 1.719062500000D+02 3.068833100440D+00-7.765680614625D-09
    2.085801167705D-10 1.000000000000D+00 2.204000000000D+03 0.000000000000D+00
    2.000000000000D+00 0.000000000000D+00-8.381903171539D-09 1.060000000000D+02
    1.038180000000D+05 4.000000000000D+00
31 22  4  4  6  0  0.0-1.719035208225D-04-1.705302565824D-12 0.000000000000D+00
    9.000000000000D+01 5.178125000000D+01 4.353395622116D-09-1.566648446408D+00
    2.583488821983D-06 1.043193519581D-02 1.099146902561D-05 5.153717208862D+03
    1.080000000000D+05 8.381903171539D-08 3.661382942382D-01-1.508742570877D-07
    9.555689241955D-01 1.662187500000D+02 3.849973534394D-01-7.786395763209D-09
   -1.682212928064D-10 1.000000000000D+00 2.204000000000D+03 0.000000000000D+00
    2.000000000000D+00 0.000000000000D+00-1.350417733192D-08 9.000000000000D+01
    1.066620000000D+05 4.000000000000D+00
12 22  4  4  8  0  0.0-1.951102167368D-04-5.798028723802D-12 0.000000000000D+00
    4.200000000000D+01 8.587500000000D+01 4.509830709694D-09-6.895816885995D-01
    4.550442099571D-06 8.731264038943D-03 4.811212420464D-06 5.153573062897D+03
    1.152000000000D+05-6.705522537231D-08 1.460807180643D+00 1.080334186554D-07
    9.695159038632D-01 2.919062500000D+02 1.269552534347D+00-8.356776664720D-09
    2.057228548969D-10 1.000000000000D+00 2.204000000000D+03 0.000000000000D+00
    2.000000000000D+00 0.000000000000D+00-1.257285475731D-08 4.200000000000D+01
    1.080180000000D+05 4.000000000000D+00
25 22  4  4  8  0  0.0 3.073937259614D-04 5.002220859751D-12 0.000000000000D+00
    7.400000000000D+01 9.371875000000D+01 4.694124100539D-09-9.761052965093D-01
    4.947185516357D-06 1.055989670567D-02 4.909932613373D-06 5.153692552567D+03
    1.152000000000D+05 9.126961231232D-08 1.383451140350D+00 2.309679985046D-07
    9.570169936563D-01 2.824062500000D+02 9.972045280170D-01-8.396778330950D-09
    1.321483616526D-10 1.000000000000D+00 2.204000000000D+03 0.000000000000D+00
    2.000000000000D+00 0.000000000000D+00 5.587935447693D-09 7.400000000000D+01
    1.080180000000D+05 4.000000000000D+00
20 22  4  4  8  0  0.0 5.159908905625D-04-2.273736754432D-13 0.000000000000D+00
    5.800000000000D+01 2.321875000000D+01 5.126642116651D-09 1.609107349803D+00
    1.035630702972D-06 4.894760320894D-03 8.089467883110D-06 5.153539356232D+03
    1.152000000000D+05 6.705522537231D-08-1.908104696951D+00 7.450580596924D-08
    9.421305645711D-01 2.123437500000D+02-3.130303610282D+00-8.289273852957D-09
    5.096640866978D-10 1.000000000000D+00 2.204000000000D+03 0.000000000000D+00
    2.000000000000D+00 0.000000000000D+00-8.381903171539D-09 5.800000000000D+01
    1.080180000000D+05 4.000000000000D+00
 2 22  4  4  8  0  0.0-6.528939120471D-04-2.273736754432D-13 0.000000000000D+00
    1.010000000000D+02-8.559375000000D+01 4.195174745867D-09 7.558485494517D-01
   -4.535540938377D-06 2.053022373002D-02 1.035071909428D-05 5.153642715454D+03
    1.152000000000D+05-2.533197402954D-07-2.876715129132D+00-2.365559339523D-07
    9.658630617877D-01 1.848750000000D+02-1.427331881622D+00-8.219985252523D-09
    5.785955293977D-11 1.000000000000D+00 2.204000000000D+03 0.000000000000D+00
    2.000000000000D+00 0.000000000000D+00-1.769512891769D-08 1.010000000000D+02
    1.080180000000D+05 4.000000000000D+00
29 22  4  4  8  0  0.0-4.991674795747D-04-4.320099833421D-12 0.000000000000D+00
    5.200000000000D+01-7.128125000000D+01 4.096242053495D-09 2.965004450074D+00
   -3.684312105179D-06 1.997563289478D-03 3.792345523834D-06 5.153727302551D+03
    1.152000000000D+05 1.862645149231D-08 2.512078211626D+00-2.421438694000D-08
    9.813840915695D-01 3.174687500000D+02 2.235088985045D+00-8.020334079107D-09
   -2.514390448740D-10 1.000000000000D+00 2.204000000000D+03 0.000000000000D+00
    2.000000000000D+00 0.000000000000D+00-1.024454832077D-08 5.200000000000D+01
    1.080180000000D+05 4.000000000000D+00
 5 22  4  4  8  0  0.0-7.707253098488D-05-1.364242052659D-12 0.000000000000D+00
    3.900000000000D+01 2.031250000000D+01 4.800914263064D-09-3.005956594661D+00
    8.530914783478D-07 5.899854702875D-03 7.562339305878D-06 5.153690870285D+03
    1.152000000000D+05 7.823109626770D-08-1.793162266715D+00-1.415610313416D-07
    9.598079941184D-01 2.343750000000D+02 1.008170866226D+00-8.011047978018D-09
    5.393081786361D-10 1.000000000000D+00 2.204000000000D+03 0.000000000000D+00
    2.000000000000D+00 0.000000000000D+00-1.117587089539D-08 3.900000000000D+01
    1.080180000000D+05 4.000000000000D+00
18 22  4  4  8  0  0.0 2.039419487119D-04-9.208633855451D-12 0.000000000000D+00
    1.070000000000D+02-5.653125000000D+01 3.960522114500D-09 8.815831867583D-01
   -2.941116690636D-06 2.175510395318D-03 1.073442399502D-05 5.153616008759D+03
    1.152000000000D+05 2.793967723846D-08-2.779409330583D+00 5.774199962616D-08
    9.714144321331D-01 1.797500000000D+02 3.068708840178D+00-7.726750421598D-09
    1.914365455291D-10 1.000000000000D+00 2.204000000000D+03 0.000000000000D+00
    2.000000000000D+00 0.000000000000D+00-8.381903171539D-09 1.070000000000D+02
    1.080180000000D+05 4.000000000000D+00
24 22  4  4  8  0  0.0 2.609202638268D-04-4.547473508865D-12 0.000000000000D+00
    2.900000000000D+01 1.903125000000D+01 5.018423323189D-09 9.102999629045D-01
    1.255422830582D-06 1.239906204864D-02 1.140125095844D-05 5.153698329926D+03
    1.152000000000D+05-1.564621925354D-07 2.642980962537D-01 1.117587089539D-07
    9.348617123085D-01 1.470000000000D+02 8.128937438073D-01-8.329275519187D-09
   -5.014494588113D-10 1.000000000000D+00 2.204000000000D+03 0.000000000000D+00
    2.000000000000D+00 0.000000000000D+00 2.328306436539D-09 2.900000000000D+01
    1.080180000000D+05 4.000000000000D+00
11 22  4  4  8  0  0.0-5.002692341805D-05 6.252776074689D-12 0.000000000000D+00
    1.430000000000D+02-6.837500000000D+01 4.130886353712D-09 2.884599071153D+00
   -3.464519977570D-06 3.008566563949D-04 1.065246760845D-05 5.153797119141D+03
    1.152000000000D+05-1.862645149231D-08-2.743888376159D+00 7.450580596924D-09
    9.627375270709D-01 1.691250000000D+02 2.689715441513D+00-7.836755003730D-09
    2.328668426958D-10 1.000000000000D+00 2.204000000000D+03 0.000000000000D+00
    2.048000000000D+03 6.300000000000D+01-8.847564458847D-09 6.550000000000D+02
    1.080180000000D+05 4.000000000000D+00
31 22  4  4  8  0  0.0-1.719156280160D-04-1.705302565824D-12 0.000000000000D+00
    1.000000000000D+02 4.034375000000D+01 4.421612749348D-09-5.163614648248D-01
    2.073124051094D-06 1.043288712390D-02 1.074373722076D-05 5.153720403671D+03
    1.152000000000D+05 1.695007085800D-07 3.660824736730D-01 1.229345798492D-07
    9.555663450710D-01 1.709687500000D+02 3.848622719727D-01-8.022477025512D-09
   -3.071556514086D-10 1.000000000000D+00 2.204000000000D+03 0.000000000000D+00
    2.800000000000D+00 0.000000000000D+00-1.350417733192D-08 1.000000000000D+02
    1.080180000000D+05 4.000000000000D+00
23 22  4  4  8  0  0.0-1.228833571076D-05-2.955857780762D-12 0.000000000000D+00
    1.430000000000D+02 2.325000000000D+01 4.604477509256D-09-1.358043427846D-01
    1.264736056328D-06 2.033411758021D-03 7.271766662598D-06 5.153703344345D+03
    1.152000000000D+05-2.607703208923D-08-1.779988721595D+00-3.166496753693D-08
    9.676790302758D-01 2.430937500000D+02 2.998172581648D+00-8.050692486514D-09
    5.489514374594D-10 1.000000000000D+00 2.204000000000D+03 0.000000000000D+00
    2.000000000000D+00 0.000000000000D+00-8.381903171539D-09 3.990000000000D+02
    1.095780000000D+05 4.000000000000D+00
23 22  4  4  8 29 36.0-1.229392364621D-05-2.955857780762D-12 0.000000000000D+00
    1.440000000000D+02 2.331250000000D+01 4.587333938015D-09 1.232325865719D-01
    1.277774572372D-06 2.033431781456D-03 7.286667823792D-06 5.153703372955D+03
    1.169760000000D+05 1.862645149231D-09-1.780003033323D+00-4.470348358154D-08
    9.676800908914D-01 2.432812500000D+02 2.998176020969D+00-8.029977337931D-09
    5.518086993330D-10 1.000000000000D+00 2.204000000000D+03 0.000000000000D+00
    2.000000000000D+00 0.000000000000D+00-8.381903171539D-09 4.000000000000D+02
    1.098180000000D+05 4.000000000000D+00
